{"type": "FeatureCollection", "features": [ {"type": "Feature", "properties": {"norad_id": 39155, "name": "COSMOS 2485 (747)", "group": "glo-ops", "lat": -29.436647142464277, "lon": -85.3647078997104, "alt_km": 19073.398360295218, "timestamp": "2025-12-20T09:36:01.906495+00:00", "meta": {"OBJECT_NAME": "COSMOS 2485 (747)", "OBJECT_ID": "2013-019A", "EPOCH": "2025-12-20T02:56:15.294336", "MEAN_MOTION": 2.13103192, "ECCENTRICITY": 0.0024792, "INCLINATION": 65.3175, "RA_OF_ASC_NODE": 79.6189, "ARG_OF_PERICENTER": 230.0872, "MEAN_ANOMALY": 129.7256, "EPHEMERIS_TYPE": 0, "CLASSIFICATION_TYPE": "U", "NORAD_CAT_ID": 39155, "ELEMENT_SET_NO": 999, "REV_AT_EPOCH": 9846, "BSTAR": 0, "MEAN_MOTION_DOT": -2e-07, "MEAN_MOTION_DDOT": 0}, "tle": {"line1": "1 39155U 13019A   25354.12239924 -.00000020  00000+0  00000+0 0  9999", "line2": "2 39155  65.3175  79.6189 0024792 230.0872 129.7256  2.13103192 98469"}}, "geometry": {"type": "Point", "coordinates": [-85.3647078997104, -29.436647142464277]}}, {"type": "Feature", "properties": {"norad_id": 39620, "name": "COSMOS 2492 (754)", "group": "glo-ops", "lat": -55.16350847946098, "lon": -178.86974367542504, "alt_km": 19122.35757578363, "timestamp": "2025-12-20T09:36:01.906506+00:00", "meta": {"OBJECT_NAME": "COSMOS 2492 (754)", "OBJECT_ID": "2014-012A", "EPOCH": "2025-12-20T01:56:38.013792", "MEAN_MOTION": 2.13103387, "ECCENTRICITY": 0.0014231, "INCLINATION": 65.4033, "RA_OF_ASC_NODE": 320.0211, "ARG_OF_PERICENTER": 312.7815, "MEAN_ANOMALY": 47.0902, "EPHEMERIS_TYPE": 0, "CLASSIFICATION_TYPE": "U", "NORAD_CAT_ID": 39620, "ELEMENT_SET_NO": 999, "REV_AT_EPOCH": 9142, "BSTAR": 0, "MEAN_MOTION_DOT": -5.4e-07, "MEAN_MOTION_DDOT": 0}, "tle": {"line1": "1 39620U 14012A   25354.08099553 -.00000054  00000+0  00000+0 0  9994", "line2": "2 39620  65.4033 320.0211 0014231 312.7815  47.0902  2.13103387 91426"}}, "geometry": {"type": "Point", "coordinates": [-178.86974367542504, -55.16350847946098]}}, {"type": "Feature", "properties": {"norad_id": 40001, "name": "COSMOS 2500 (755)", "group": "glo-ops", "lat": 57.023520583497266, "lon": 94.70287281929208, "alt_km": 19128.932090688613, "timestamp": "2025-12-20T09:36:01.906518+00:00", "meta": {"OBJECT_NAME": "COSMOS 2500 (755)", "OBJECT_ID": "2014-032A", "EPOCH": "2025-12-19T07:33:00.956160", "MEAN_MOTION": 2.13106226, "ECCENTRICITY": 0.0007806, "INCLINATION": 65.3396, "RA_OF_ASC_NODE": 319.8089, "ARG_OF_PERICENTER": 219.2703, "MEAN_ANOMALY": 140.6644, "EPHEMERIS_TYPE": 0, "CLASSIFICATION_TYPE": "U", "NORAD_CAT_ID": 40001, "ELEMENT_SET_NO": 999, "REV_AT_EPOCH": 8962, "BSTAR": 0, "MEAN_MOTION_DOT": -5.9e-07, "MEAN_MOTION_DDOT": 0}, "tle": {"line1": "1 40001U 14032A   25353.31459440 -.00000059  00000+0  00000+0 0  9996", "line2": "2 40001  65.3396 319.8089 0007806 219.2703 140.6644  2.13106226 89625"}}, "geometry": {"type": "Point", "coordinates": [94.70287281929208, 57.023520583497266]}}, {"type": "Feature", "properties": {"norad_id": 40315, "name": "COSMOS 2501 (702K)", "group": "glo-ops", "lat": -63.37153571808696, "lon": 114.42521964302078, "alt_km": 19118.202039492975, "timestamp": "2025-12-20T09:36:01.906529+00:00", "meta": {"OBJECT_NAME": "COSMOS 2501 (702K)", "OBJECT_ID": "2014-075A", "EPOCH": "2025-12-19T02:31:27.452640", "MEAN_MOTION": 2.13101513, "ECCENTRICITY": 0.0020099, "INCLINATION": 63.6146, "RA_OF_ASC_NODE": 196.6046, "ARG_OF_PERICENTER": 204.1838, "MEAN_ANOMALY": 155.7988, "EPHEMERIS_TYPE": 0, "CLASSIFICATION_TYPE": "U", "NORAD_CAT_ID": 40315, "ELEMENT_SET_NO": 999, "REV_AT_EPOCH": 8601, "BSTAR": 0, "MEAN_MOTION_DOT": 1.06e-06, "MEAN_MOTION_DDOT": 0}, "tle": {"line1": "1 40315U 14075A   25353.10517885  .00000106  00000+0  00000+0 0  9998", "line2": "2 40315  63.6146 196.6046 0020099 204.1838 155.7988  2.13101513 86014"}}, "geometry": {"type": "Point", "coordinates": [114.42521964302078, -63.37153571808696]}}, {"type": "Feature", "properties": {"norad_id": 41330, "name": "COSMOS 2514 (751)", "group": "glo-ops", "lat": -60.858841040585105, "lon": -97.13575212729513, "alt_km": 19123.8095146994, "timestamp": "2025-12-20T09:36:01.906541+00:00", "meta": {"OBJECT_NAME": "COSMOS 2514 (751)", "OBJECT_ID": "2016-008A", "EPOCH": "2025-12-20T00:39:52.986240", "MEAN_MOTION": 2.13102687, "ECCENTRICITY": 0.0011788, "INCLINATION": 65.1296, "RA_OF_ASC_NODE": 319.1545, "ARG_OF_PERICENTER": 220.1446, "MEAN_ANOMALY": 139.76, "EPHEMERIS_TYPE": 0, "CLASSIFICATION_TYPE": "U", "NORAD_CAT_ID": 41330, "ELEMENT_SET_NO": 999, "REV_AT_EPOCH": 7680, "BSTAR": 0, "MEAN_MOTION_DOT": -5.4e-07, "MEAN_MOTION_DDOT": 0}, "tle": {"line1": "1 41330U 16008A   25354.02769660 -.00000054  00000+0  00000+0 0  9999", "line2": "2 41330  65.1296 319.1545 0011788 220.1446 139.7600  2.13102687 76801"}}, "geometry": {"type": "Point", "coordinates": [-97.13575212729513, -60.858841040585105]}}, {"type": "Feature", "properties": {"norad_id": 42939, "name": "COSMOS 2522 (752)", "group": "glo-ops", "lat": 43.20858452942559, "lon": -134.82505646228958, "alt_km": 19141.09926734024, "timestamp": "2025-12-20T09:36:01.906552+00:00", "meta": {"OBJECT_NAME": "COSMOS 2522 (752)", "OBJECT_ID": "2017-055A", "EPOCH": "2025-12-19T20:47:07.990080", "MEAN_MOTION": 2.13102095, "ECCENTRICITY": 0.0006377, "INCLINATION": 64.0763, "RA_OF_ASC_NODE": 197.9863, "ARG_OF_PERICENTER": 224.0573, "MEAN_ANOMALY": 135.969, "EPHEMERIS_TYPE": 0, "CLASSIFICATION_TYPE": "U", "NORAD_CAT_ID": 42939, "ELEMENT_SET_NO": 999, "REV_AT_EPOCH": 6415, "BSTAR": 0, "MEAN_MOTION_DOT": 1.03e-06, "MEAN_MOTION_DDOT": 0}, "tle": {"line1": "1 42939U 17055A   25353.86606470  .00000103  00000+0  00000+0 0  9992", "line2": "2 42939  64.0763 197.9863 0006377 224.0573 135.9690  2.13102095 64156"}}, "geometry": {"type": "Point", "coordinates": [-134.82505646228958, 43.20858452942559]}}, {"type": "Feature", "properties": {"norad_id": 43508, "name": "COSMOS 2527 (756)", "group": "glo-ops", "lat": 63.50474400323989, "lon": 145.9736305844743, "alt_km": 19141.989518079918, "timestamp": "2025-12-20T09:36:01.906563+00:00", "meta": {"OBJECT_NAME": "COSMOS 2527 (756)", "OBJECT_ID": "2018-053A", "EPOCH": "2025-12-18T21:19:14.310912", "MEAN_MOTION": 2.13102316, "ECCENTRICITY": 0.0008836, "INCLINATION": 65.4759, "RA_OF_ASC_NODE": 79.9259, "ARG_OF_PERICENTER": 226.7635, "MEAN_ANOMALY": 133.1863, "EPHEMERIS_TYPE": 0, "CLASSIFICATION_TYPE": "U", "NORAD_CAT_ID": 43508, "ELEMENT_SET_NO": 999, "REV_AT_EPOCH": 5843, "BSTAR": 0, "MEAN_MOTION_DOT": -3.3e-07, "MEAN_MOTION_DDOT": 0}, "tle": {"line1": "1 43508U 18053A   25352.88836008 -.00000033  00000+0  00000+0 0  9990", "line2": "2 43508  65.4759  79.9259 0008836 226.7635 133.1863  2.13102316 58439"}}, "geometry": {"type": "Point", "coordinates": [145.9736305844743, 63.50474400323989]}}, {"type": "Feature", "properties": {"norad_id": 43687, "name": "COSMOS 2529 (757)", "group": "glo-ops", "lat": 4.476274888179607, "lon": -159.20324098815027, "alt_km": 19136.375993675287, "timestamp": "2025-12-20T09:36:01.906574+00:00", "meta": {"OBJECT_NAME": "COSMOS 2529 (757)", "OBJECT_ID": "2018-086A", "EPOCH": "2025-12-18T12:23:46.661856", "MEAN_MOTION": 2.13102105, "ECCENTRICITY": 0.00070461, "INCLINATION": 64.2922, "RA_OF_ASC_NODE": 198.6932, "ARG_OF_PERICENTER": 253.6593, "MEAN_ANOMALY": 106.345, "EPHEMERIS_TYPE": 0, "CLASSIFICATION_TYPE": "U", "NORAD_CAT_ID": 43687, "ELEMENT_SET_NO": 999, "REV_AT_EPOCH": 5543, "BSTAR": 0, "MEAN_MOTION_DOT": 1.09e-06, "MEAN_MOTION_DDOT": 0}, "tle": {"line1": "1 43687U 18086A   25352.51651229  .00000109  00000+0  00000+0 0  9997", "line2": "2 43687  64.2922 198.6932 0007046 253.6593 106.3450  2.13102105 55434"}}, "geometry": {"type": "Point", "coordinates": [-159.20324098815027, 4.476274888179607]}}, {"type": "Feature", "properties": {"norad_id": 44299, "name": "COSMOS 2534 (758)", "group": "glo-ops", "lat": 35.987767872463245, "lon": -1.7789414388368712, "alt_km": 19143.945399230226, "timestamp": "2025-12-20T09:36:01.906585+00:00", "meta": {"OBJECT_NAME": "COSMOS 2534 (758)", "OBJECT_ID": "2019-030A", "EPOCH": "2025-12-18T18:30:09.690336", "MEAN_MOTION": 2.13102412, "ECCENTRICITY": 0.0008748, "INCLINATION": 64.3658, "RA_OF_ASC_NODE": 198.6898, "ARG_OF_PERICENTER": 284.2192, "MEAN_ANOMALY": 45.4012, "EPHEMERIS_TYPE": 0, "CLASSIFICATION_TYPE": "U", "NORAD_CAT_ID": 44299, "ELEMENT_SET_NO": 999, "REV_AT_EPOCH": 5107, "BSTAR": 0, "MEAN_MOTION_DOT": 1.08e-06, "MEAN_MOTION_DDOT": 0}, "tle": {"line1": "1 44299U 19030A   25352.77094549  .00000108  00000+0  00000+0 0  9990", "line2": "2 44299  64.3658 198.6898 0008748 284.2192  45.4012  2.13102412 51071"}}, "geometry": {"type": "Point", "coordinates": [-1.7789414388368712, 35.987767872463245]}}, {"type": "Feature", "properties": {"norad_id": 44850, "name": "COSMOS 2544 (759)", "group": "glo-ops", "lat": 50.51584139572278, "lon": -133.88807718373525, "alt_km": 19146.22831489975, "timestamp": "2025-12-20T09:36:01.906596+00:00", "meta": {"OBJECT_NAME": "COSMOS 2544 (759)", "OBJECT_ID": "2019-088A", "EPOCH": "2025-12-19T07:15:09.090720", "MEAN_MOTION": 2.13102067, "ECCENTRICITY": 0.0014082, "INCLINATION": 65.4636, "RA_OF_ASC_NODE": 79.7387, "ARG_OF_PERICENTER": 249.9981, "MEAN_ANOMALY": 109.8765, "EPHEMERIS_TYPE": 0, "CLASSIFICATION_TYPE": "U", "NORAD_CAT_ID": 44850, "ELEMENT_SET_NO": 999, "REV_AT_EPOCH": 4688, "BSTAR": 0, "MEAN_MOTION_DOT": -2.9e-07, "MEAN_MOTION_DDOT": 0}, "tle": {"line1": "1 44850U 19088A   25353.30218855 -.00000029  00000+0  00000+0 0  9997", "line2": "2 44850  65.4636  79.7387 0014082 249.9981 109.8765  2.13102067 46885"}}, "geometry": {"type": "Point", "coordinates": [-133.88807718373525, 50.51584139572278]}}]}